     2.11           N: GPS NAV DATA                         RINEX VERSION / TYPE
teqc  2019Feb25                         20221121 12:28:50UTCPGM / RUN BY / DATE
OSX ker:10.11.6|Core i5|gcc 4.3 -m64|OSX ker:10.10+|=+      COMMENT
    1.2107D-08 -7.4506D-09 -1.1921D-07  5.9605D-08          ION ALPHA
    9.6256D+04 -3.2768D+04 -1.9661D+05  1.9661D+05          ION BETA
   -2.793967723846D-09-6.217248937901D-15   503808     1555 DELTA-UTC: A0,A1,T,W
                                                            END OF HEADER
 2 09 10 29  0  0  0.0 1.856726594269D-04 3.979039320257D-12 0.000000000000D+00
    3.100000000000D+01 6.178125000000D+01 5.154143262184D-09-6.022853086749D-01
    3.214925527573D-06 9.145194315352D-03 8.473172783852D-06 5.153727855682D+03
    3.456000000000D+05 1.136213541031D-07 3.114236274224D+00-1.545995473862D-07
    9.410852554755D-01 2.058125000000D+02 2.908593866655D+00-8.406064432039D-09
    3.975165581602D-10 1.000000000000D+00 1.555000000000D+03 0.000000000000D+00
    2.000000000000D+00 0.000000000000D+00-1.722946763039D-08 3.100000000000D+01
    3.426720000000D+05 4.000000000000D+00
 4 09 10 29  0  0  0.0-3.328537568450D-04-1.796252036002D-11 0.000000000000D+00
    1.130000000000D+02 6.362500000000D+01 5.136642533208D-09 2.247940499471D+00
    3.311783075333D-06 8.967740810476D-03 8.776783943176D-06 5.153565216064D+03
    3.456000000000D+05-1.806765794754D-07 3.132397088478D+00-9.313225746155D-08
    9.402675691184D-01 2.009062500000D+02 5.465118407090D-01-8.282845013741D-09
    3.628722579432D-10 1.000000000000D+00 1.555000000000D+03 0.000000000000D+00
    2.000000000000D+00 0.000000000000D+00-6.053596735001D-09 1.130000000000D+02
    3.426720000000D+05 4.000000000000D+00
 5 09 10 29  0  0  0.0-5.533033981919D-05 7.844391802792D-12 0.000000000000D+00
    4.800000000000D+01-7.187500000000D-01 4.973421448680D-09 7.937782921206D-01
    7.636845111847D-08 1.585685997270D-03 4.287809133530D-06 5.153580121994D+03
    3.456000000000D+05 2.421438694000D-08-2.110930337682D+00-2.421438694000D-08
    9.609988518595D-01 2.940000000000D+02 2.240071818611D-01-8.432494104370D-09
   -2.207234797332D-10 1.000000000000D+00 1.555000000000D+03 0.000000000000D+00
    2.000000000000D+00 0.000000000000D+00-9.313225746155D-09 4.800000000000D+01
    3.426720000000D+05 4.000000000000D+00
10 09 10 29  0  0  0.0-2.701766788960D-05-9.094947017729D-13 0.000000000000D+00
    4.800000000000D+01-1.250000000000D+00 5.106641283536D-09 5.379103300558D-01
    1.266598701477D-07 8.672480471432D-03 4.373490810394D-06 5.153387430191D+03
    3.456000000000D+05 3.725290298462D-09-2.083981342965D+00 1.061707735062D-07
    9.560559896038D-01 2.903750000000D+02 6.178888762947D-01-8.589286349682D-09
   -2.753686130652D-10 1.000000000000D+00 1.555000000000D+03 0.000000000000D+00
    2.000000000000D+00 0.000000000000D+00-2.793967723846D-09 4.800000000000D+01
    3.426720000000D+05 4.000000000000D+00
13 09 10 29  0  0  0.0 3.059417940676D-04 2.273736754432D-13 0.000000000000D+00
    4.400000000000D+01-1.837500000000D+01 3.686939290106D-09 3.117744092842D-02
   -1.039355993271D-06 3.935393178836D-03 9.739771485329D-06 5.153635875702D+03
    3.456000000000D+05-5.029141902924D-08-9.973201102486D-01 1.862645149231D-09
    9.941080351499D-01 2.096250000000D+02 1.660740941006D+00-7.697106329660D-09
   -2.760829285336D-10 1.000000000000D+00 1.555000000000D+03 0.000000000000D+00
    2.000000000000D+00 0.000000000000D+00-1.117587089539D-08 4.400000000000D+01
    3.426720000000D+05 4.000000000000D+00
29 09 10 29  0  0  0.0 6.985524669290D-05 3.069544618484D-12 0.000000000000D+00
    2.200000000000D+01-4.146875000000D+01 4.344466678761D-09 3.112130299782D+00
   -2.313405275345D-06 2.941796323285D-03 1.062080264091D-05 5.153588195801D+03
    3.456000000000D+05 2.421438694000D-08 2.109468667471D+00 9.313225746155D-09
    9.600283739495D-01 1.719062500000D+02-1.271534086144D+00-7.864613306998D-09
   -1.128618440060D-10 1.000000000000D+00 1.555000000000D+03 0.000000000000D+00
    2.000000000000D+00 0.000000000000D+00-8.847564458847D-09 2.200000000000D+01
    3.426720000000D+05 4.000000000000D+00
16 09 10 29  0  0  0.0-2.488959580660D-06-4.092726157978D-12 0.000000000000D+00
    4.100000000000D+01-3.331250000000D+01 4.464828835185D-09 1.633115134555D+00
   -1.626089215279D-06 5.303335841745D-03 4.809349775314D-06 5.153644929886D+03
    3.456000000000D+05 1.117587089539D-08 1.058143297859D+00 4.842877388000D-08
    9.695788122665D-01 2.900312500000D+02-2.692445733801D-01-8.149982336620D-09
   -8.571785620706D-11 1.000000000000D+00 1.555000000000D+03 0.000000000000D+00
    2.000000000000D+00 0.000000000000D+00-9.778887033463D-09 4.100000000000D+01
    3.435180000000D+05 4.000000000000D+00
 7 09 10 29  0  0  0.0 8.736271411180D-06-6.821210263297D-13 0.000000000000D+00
    3.700000000000D+01 4.106250000000D+01 4.265534819504D-09-2.318440280138D+00
    2.106651663780D-06 3.238028730266D-03 7.962808012962D-06 5.153645803452D+03
    3.456000000000D+05 7.450580596924D-09-1.161689495316D-02 1.490116119385D-08
    9.695903927260D-01 2.320000000000D+02 3.004366219844D+00-7.977832308738D-09
    3.214419607765D-10 1.000000000000D+00 1.555000000000D+03 0.000000000000D+00
    2.000000000000D+00 0.000000000000D+00-1.071020960808D-08 3.700000000000D+01
    3.438480000000D+05 4.000000000000D+00
 7 09 10 29  2  0  0.0 8.731149137020D-06-6.821210263297D-13 0.000000000000D+00
    6.000000000000D+01 3.681250000000D+01 4.263391873099D-09-1.268334511681D+00
    1.881271600723D-06 3.238335601054D-03 8.003786206245D-06 5.153645130157D+03
    3.528000000000D+05-5.960464477539D-08-1.167386976068D-02-4.284083843231D-08
    9.695925651593D-01 2.315000000000D+02 3.004456856396D+00-7.952474109610D-09
    2.521533603424D-10 1.000000000000D+00 1.555000000000D+03 0.000000000000D+00
    2.000000000000D+00 0.000000000000D+00-1.071020960808D-08 6.000000000000D+01
    3.456180000000D+05 4.000000000000D+00
16 09 10 29  2  0  0.0-2.518296241760D-06-4.092726157978D-12 0.000000000000D+00
    6.700000000000D+01-2.878125000000D+01 4.551618164595D-09 2.683523021928D+00
   -1.490116119385D-06 5.303977057338D-03 4.559755325317D-06 5.153642530441D+03
    3.528000000000D+05 2.235174179077D-08 1.058084700675D+00 2.980232238770D-08
    9.695780998254D-01 2.980625000000D+02-2.694532410891D-01-8.154625387165D-09
   -1.035757429169D-10 1.000000000000D+00 1.555000000000D+03 0.000000000000D+00
    2.000000000000D+00 0.000000000000D+00-9.778887033463D-09 6.700000000000D+01
    3.456180000000D+05 4.000000000000D+00
29 09 10 29  2  0  0.0 6.987713277340D-05 3.069544618484D-12 0.000000000000D+00
    2.300000000000D+01-4.068750000000D+01 4.315894060025D-09-2.120994586475D+00
   -2.032145857811D-06 2.941657556221D-03 1.097097992897D-05 5.153587984085D+03
    3.528000000000D+05 5.029141902924D-08 2.109412135928D+00 7.078051567078D-08
    9.600272826126D-01 1.642812500000D+02-1.271363466009D+00-7.913901074317D-09
   -1.450060400836D-10 1.000000000000D+00 1.555000000000D+03 0.000000000000D+00
    2.000000000000D+00 0.000000000000D+00-8.847564458847D-09 2.300000000000D+01
    3.456180000000D+05 4.000000000000D+00
 2 09 10 29  2  0  0.0 1.857010647655D-04 3.979039320257D-12 0.000000000000D+00
    3.900000000000D+01 5.921875000000D+01 5.149857369373D-09 4.478727678814D-01
    3.127381205559D-06 9.145800606348D-03 8.316710591316D-06 5.153729019165D+03
    3.528000000000D+05 1.862645149231D-07 3.114175686009D+00-3.166496753693D-08
    9.410877673058D-01 2.092500000000D+02 2.908587707770D+00-8.447851886940D-09
    3.543004723225D-10 1.000000000000D+00 1.555000000000D+03 0.000000000000D+00
    2.000000000000D+00 0.000000000000D+00-1.722946763039D-08 3.900000000000D+01
    3.456180000000D+05 4.000000000000D+00
 5 09 10 29  2  0  0.0-5.527352914214D-05 7.844391802792D-12 0.000000000000D+00
    4.900000000000D+01 8.437500000000D-01 4.989850704453D-09 1.843642091002D+00
    1.732259988785D-07 1.585930818692D-03 4.673376679420D-06 5.153581333160D+03
    3.528000000000D+05 0.000000000000D+00-2.110991654430D+00 1.154839992523D-07
    9.609976391005D-01 2.895312500000D+02 2.243847054265D-01-8.426422422888D-09
   -1.046472161195D-10 1.000000000000D+00 1.555000000000D+03 0.000000000000D+00
    2.000000000000D+00 0.000000000000D+00-9.313225746155D-09 4.900000000000D+01
    3.456180000000D+05 4.000000000000D+00
13 09 10 29  2  0  0.0 3.059436567128D-04 2.273736754432D-13 0.000000000000D+00
    7.300000000000D+01-2.637500000000D+01 3.653009305358D-09 1.081173468586D+00
   -1.510605216026D-06 3.936019609682D-03 9.590759873390D-06 5.153637674332D+03
    3.528000000000D+05-7.636845111847D-08-9.973756353043D-01-5.960464477539D-08
    9.941062342978D-01 2.127187500000D+02 1.660942845645D+00-7.656747505696D-09
   -2.503675716715D-10 1.000000000000D+00 1.555000000000D+03 0.000000000000D+00
    2.000000000000D+00 0.000000000000D+00-1.117587089539D-08 7.300000000000D+01
    3.456180000000D+05 4.000000000000D+00
 4 09 10 29  2  0  0.0-3.329832106829D-04-1.796252036002D-11 0.000000000000D+00
    1.140000000000D+02 6.575000000000D+01 5.021994900531D-09-2.985026270211D+00
    3.309920430183D-06 8.966982946731D-03 8.571892976761D-06 5.153566722870D+03
    3.528000000000D+05-5.215406417847D-08 3.132337976347D+00-8.940696716309D-08
    9.402706573385D-01 2.064375000000D+02 5.465440790347D-01-8.175697693483D-09
    3.618007847406D-10 1.000000000000D+00 1.555000000000D+03 0.000000000000D+00
    2.000000000000D+00 0.000000000000D+00-6.053596735001D-09 1.140000000000D+02
    3.456180000000D+05 4.000000000000D+00
